{
  "type": "FeatureCollection",
  "features": [
    {
      "type": "Feature",
      "properties": {
        "norad_id": 37781,
        "name": "HAIYANG-2A",
        "group": "resource",
        "lat": -8.093848842350939,
        "lon": 172.48097749952444,
        "alt_km": 972.3334791325733,
        "timestamp": "2025-12-18T23:35:48.704007+00:00",
        "meta_object_name": "HAIYANG-2A",
        "meta_object_id": "2011-043A",
        "meta_epoch": "2025-12-18T13:58:48.284256",
        "meta_mean_motion": 13.78835416,
        "meta_eccentricity": 0.00016424,
        "meta_inclination": 99.3373,
        "meta_ra_of_asc_node": 353.4272,
        "meta_arg_of_pericenter": 75.6034,
        "meta_mean_anomaly": 284.53,
        "meta_ephemeris_type": 0,
        "meta_classification_type": "U",
        "meta_norad_cat_id": 37781,
        "meta_element_set_no": 999,
        "meta_rev_at_epoch": 72179,
        "meta_bstar": 2.526474e-06,
        "meta_mean_motion_dot": -4.1e-07,
        "meta_mean_motion_ddot": 0,
        "tle_line1": "1 37781U 11043A   25352.58250329 -.00000041  00000+0  25265-5 0  9996",
        "tle_line2": "2 37781  99.3373 353.4272 0001642  75.6034 284.5300 13.78835416721790"
      },
      "geometry": {
        "type": "Point",
        "coordinates": [
          172.48097749952444,
          -8.093848842350939
        ]
      }
    },
    {
      "type": "Feature",
      "properties": {
        "norad_id": 37791,
        "name": "RASAT",
        "group": "resource",
        "lat": 35.63883652238164,
        "lon": -92.01712382706279,
        "alt_km": 667.3409110217217,
        "timestamp": "2025-12-18T23:35:48.704018+00:00",
        "meta_object_name": "RASAT",
        "meta_object_id": "2011-044D",
        "meta_epoch": "2025-12-18T15:23:02.108832",
        "meta_mean_motion": 14.67917617,
        "meta_eccentricity": 0.00216677,
        "meta_inclination": 98.065,
        "meta_ra_of_asc_node": 81.8111,
        "meta_arg_of_pericenter": 47.1542,
        "meta_mean_anomaly": 89.1533,
        "meta_ephemeris_type": 0,
        "meta_classification_type": "U",
        "meta_norad_cat_id": 37791,
        "meta_element_set_no": 999,
        "meta_rev_at_epoch": 76669,
        "meta_bstar": 8.8499488e-05,
        "meta_mean_motion_dot": 4.59e-06,
        "meta_mean_motion_ddot": 0,
        "tle_line1": "1 37791U 11044D   25352.64099663  .00000459  00000+0  88499-4 0  9996",
        "tle_line2": "2 37791  98.0650  81.8111 0021667  47.1542  89.1533 14.67917617766694"
      },
      "geometry": {
        "type": "Point",
        "coordinates": [
          -92.01712382706279,
          35.63883652238164
        ]
      }
    },
    {
      "type": "Feature",
      "properties": {
        "norad_id": 37841,
        "name": "SRMSAT",
        "group": "resource",
        "lat": -3.062178347373765,
        "lon": -101.36407248554977,
        "alt_km": 860.6353731646468,
        "timestamp": "2025-12-18T23:35:48.704029+00:00",
        "meta_object_name": "SRMSAT",
        "meta_object_id": "2011-058D",
        "meta_epoch": "2025-12-18T12:39:50.333760",
        "meta_mean_motion": 14.11513423,
        "meta_eccentricity": 0.00118983,
        "meta_inclination": 19.9721,
        "meta_ra_of_asc_node": 72.9206,
        "meta_arg_of_pericenter": 17.1878,
        "meta_mean_anomaly": 11.9497,
        "meta_ephemeris_type": 0,
        "meta_classification_type": "U",
        "meta_norad_cat_id": 37841,
        "meta_element_set_no": 999,
        "meta_rev_at_epoch": 73226,
        "meta_bstar": 7.1009645e-05,
        "meta_mean_motion_dot": 3.95e-06,
        "meta_mean_motion_ddot": 0,
        "tle_line1": "1 37841U 11058D   25352.52766590  .00000395  00000+0  71010-4 0  9994",
        "tle_line2": "2 37841  19.9721  72.9206 0011898  17.1878  11.9497 14.11513423732265"
      },
      "geometry": {
        "type": "Point",
        "coordinates": [
          -101.36407248554977,
          -3.062178347373765
        ]
      }
    },
    {
      "type": "Feature",
      "properties": {
        "norad_id": 38012,
        "name": "PLEIADES 1A",
        "group": "resource",
        "lat": 81.74601176959477,
        "lon": -17.024113926488333,
        "alt_km": 689.564683117047,
        "timestamp": "2025-12-18T23:35:48.704040+00:00",
        "meta_object_name": "PLEIADES 1A",
        "meta_object_id": "2011-076F",
        "meta_epoch": "2025-12-18T15:42:53.728992",
        "meta_mean_motion": 14.58566857,
        "meta_eccentricity": 0.00011451,
        "meta_inclination": 98.1823,
        "meta_ra_of_asc_node": 65.3323,
        "meta_arg_of_pericenter": 73.2765,
        "meta_mean_anomaly": 92.2457,
        "meta_ephemeris_type": 0,
        "meta_classification_type": "U",
        "meta_norad_cat_id": 38012,
        "meta_element_set_no": 999,
        "meta_rev_at_epoch": 74567,
        "meta_bstar": 7.4185064e-05,
        "meta_mean_motion_dot": 2.99e-06,
        "meta_mean_motion_ddot": 0,
        "tle_line1": "1 38012U 11076F   25352.65478853  .00000299  00000+0  74185-4 0  9990",
        "tle_line2": "2 38012  98.1823  65.3323 0001145  73.2765  92.2457 14.58566857745673"
      },
      "geometry": {
        "type": "Point",
        "coordinates": [
          -17.024113926488333,
          81.74601176959477
        ]
      }
    },
    {
      "type": "Feature",
      "properties": {
        "norad_id": 38038,
        "name": "ZIYUAN 1-02C (ZY 1-02C)",
        "group": "resource",
        "lat": -73.47067131167279,
        "lon": -151.1121048878938,
        "alt_km": 775.9966745714128,
        "timestamp": "2025-12-18T23:35:48.704050+00:00",
        "meta_object_name": "ZIYUAN 1-02C (ZY 1-02C)",
        "meta_object_id": "2011-079A",
        "meta_epoch": "2025-12-18T16:26:01.140288",
        "meta_mean_motion": 14.38018818,
        "meta_eccentricity": 0.00073706,
        "meta_inclination": 98.4334,
        "meta_ra_of_asc_node": 58.5891,
        "meta_arg_of_pericenter": 122.6638,
        "meta_mean_anomaly": 28.7456,
        "meta_ephemeris_type": 0,
        "meta_classification_type": "U",
        "meta_norad_cat_id": 38038,
        "meta_element_set_no": 999,
        "meta_rev_at_epoch": 73326,
        "meta_bstar": 0.00015556035,
        "meta_mean_motion_dot": 4.28e-06,
        "meta_mean_motion_ddot": 0,
        "tle_line1": "1 38038U 11079A   25352.68473542  .00000428  00000+0  15556-3 0  9994",
        "tle_line2": "2 38038  98.4334  58.5891 0007370 122.6638  28.7456 14.38018818733261"
      },
      "geometry": {
        "type": "Point",
        "coordinates": [
          -151.1121048878938,
          -73.47067131167279
        ]
      }
    },
    {
      "type": "Feature",
      "properties": {
        "norad_id": 38338,
        "name": "ARIRANG-3 (KOMPSAT-3)",
        "group": "resource",
        "lat": 56.27485362953619,
        "lon": -65.06356603605815,
        "alt_km": 682.8359057382095,
        "timestamp": "2025-12-18T23:35:48.704061+00:00",
        "meta_object_name": "ARIRANG-3 (KOMPSAT-3)",
        "meta_object_id": "2012-025B",
        "meta_epoch": "2025-12-18T15:07:18.507648",
        "meta_mean_motion": 14.61720329,
        "meta_eccentricity": 0.00049929,
        "meta_inclination": 98.333,
        "meta_ra_of_asc_node": 307.264,
        "meta_arg_of_pericenter": 318.4829,
        "meta_mean_anomaly": 41.5992,
        "meta_ephemeris_type": 0,
        "meta_classification_type": "U",
        "meta_norad_cat_id": 38338,
        "meta_element_set_no": 999,
        "meta_rev_at_epoch": 72496,
        "meta_bstar": 9.656973e-05,
        "meta_mean_motion_dot": 4.33e-06,
        "meta_mean_motion_ddot": 0,
        "tle_line1": "1 38338U 12025B   25352.63007532  .00000433  00000+0  96570-4 0  9998",
        "tle_line2": "2 38338  98.3330 307.2640 0004992 318.4829  41.5992 14.61720329724967"
      },
      "geometry": {
        "type": "Point",
        "coordinates": [
          -65.06356603605815,
          56.27485362953619
        ]
      }
    },
    {
      "type": "Feature",
      "properties": {
        "norad_id": 38709,
        "name": "EXACTVIEW-1 (ADS-1B)",
        "group": "resource",
        "lat": -50.12999146687104,
        "lon": 112.39670066294924,
        "alt_km": 808.976135990195,
        "timestamp": "2025-12-18T23:35:48.704071+00:00",
        "meta_object_name": "EXACTVIEW-1 (ADS-1B)",
        "meta_object_id": "2012-039C",
        "meta_epoch": "2025-12-18T06:58:57.463968",
        "meta_mean_motion": 14.24910205,
        "meta_eccentricity": 0.00103924,
        "meta_inclination": 98.9637,
        "meta_ra_of_asc_node": 100.7974,
        "meta_arg_of_pericenter": 337.8294,
        "meta_mean_anomaly": 22.2434,
        "meta_ephemeris_type": 0,
        "meta_classification_type": "U",
        "meta_norad_cat_id": 38709,
        "meta_element_set_no": 999,
        "meta_rev_at_epoch": 69694,
        "meta_bstar": 6.6165592e-05,
        "meta_mean_motion_dot": 1.08e-06,
        "meta_mean_motion_ddot": 0,
        "tle_line1": "1 38709U 12039C   25352.29094287  .00000108  00000+0  66166-4 0  9997",
        "tle_line2": "2 38709  98.9637 100.7974 0010392 337.8294  22.2434 14.24910205696949"
      },
      "geometry": {
        "type": "Point",
        "coordinates": [
          112.39670066294924,
          -50.12999146687104
        ]
      }
    }
  ]
}